STARLINK-4426           
1 53484U 22099V   26068.87436418  .00002107  00000+0  15016-3 0  9994
2 53484  97.6033 191.3741 0000588 182.7659 177.3565 15.05654177196077
CENTAURI-6              
1 59451U 24066K   26068.32290132  .00007311  00000+0  52686-3 0  9997
2 59451  45.6063  55.7055 0002534 285.4438  74.6166 15.04786474105074
